[{"OBJECT_NAME":"TRANSPORTER-12 OBJECT AZ","OBJECT_ID":"2025-009AZ","EPOCH":"2026-03-09T17:02:46.667040","MEAN_MOTION":15.30349724,"ECCENTRICITY":9.87e-5,"INCLINATION":97.3981,"RA_OF_ASC_NODE":151.9913,"ARG_OF_PERICENTER":45.3581,"MEAN_ANOMALY":314.774,"EPHEMERIS_TYPE":0,"CLASSIFICATION_TYPE":"U","NORAD_CAT_ID":62656,"ELEMENT_SET_NO":999,"REV_AT_EPOCH":6379,"BSTAR":0.00054902545,"MEAN_MOTION_DOT":0.00016057,"MEAN_MOTION_DDOT":0},{"OBJECT_NAME":"STARLINK-35081","OBJECT_ID":"2025-240C","EPOCH":"2026-03-09T23:12:45.392256","MEAN_MOTION":15.30212281,"ECCENTRICITY":0.00023754,"INCLINATION":53.1616,"RA_OF_ASC_NODE":61.3252,"ARG_OF_PERICENTER":79.1326,"MEAN_ANOMALY":280.9942,"EPHEMERIS_TYPE":0,"CLASSIFICATION_TYPE":"U","NORAD_CAT_ID":66148,"ELEMENT_SET_NO":999,"REV_AT_EPOCH":2203,"BSTAR":0.00086239339,"MEAN_MOTION_DOT":0.0002528,"MEAN_MOTION_DDOT":0}]
